COSMOS 2426 (717)       
1 29671U 06062B   20024.38902902  .00000033  00000-0  10000-3 0  9990
2 29671  65.0230 272.8151 0019685 171.5747 102.1154  2.12962322101803
COSMOS 2433 (720)       
1 32275U 07052A   20024.40342690 -.00000043  00000-0  10000-3 0  9991
2 32275  65.9347  33.7541 0005555 259.3577  91.3375  2.13104403 95310
COSMOS 2432 (719)       
1 32276U 07052B   20024.57856678 -.00000044  00000-0  10000-3 0  9997
2 32276  65.9477  33.8356 0012000 317.8993 117.6639  2.13103650 95324
COSMOS 2434 (721)       
1 32393U 07065A   20024.26952264  .00000035  00000-0  00000+0 0  9999
2 32393  64.6282 271.4024 0003433  78.7235  56.6659  2.13103050 94022
COSMOS 2436 (723)       
1 32395U 07065C   20024.16929492  .00000036  00000-0  10000-3 0  9993
2 32395  64.6387 271.4537 0015368 343.0567 203.9930  2.13280892 93955
COSMOS 2456 (730)       
1 36111U 09070A   20024.32989226 -.00000017  00000-0  00000+0 0  9995
2 36111  64.2156 151.0604 0002801 341.0781  14.0004  2.13102756 78685
COSMOS 2457 (733)       
1 36112U 09070B   20024.52365030 -.00000016  00000-0  00000+0 0  9998
2 36112  64.1992 150.9487 0006551 151.8762 115.8187  2.13101431 78694
COSMOS 2459 (731)       
1 36400U 10007A   20024.23439088 -.00000044  00000-0  10000-3 0  9999
2 36400  65.8386  32.7490 0026010 343.8878  92.0448  2.13105127 77043
COSMOS 2461 (735)       
1 36401U 10007B   20024.33665422 -.00000045  00000-0  10000-3 0  9995
2 36401  65.8315  32.7171 0004483  50.4337  13.6951  2.13101937 77046
COSMOS 2460 (732)       
1 36402U 10007C   20024.41741483 -.00000045  00000-0  10000-3 0  9997
2 36402  65.8223  32.6751 0002667 266.6771 258.8267  2.13101421 77044
COSMOS 2464 (736)       
1 37139U 10041C   20024.40947435  .00000035  00000-0  00000+0 0  9990
2 37139  64.2296 270.9110 0027291  11.0886  96.3402  2.13100709 73118
COSMOS 2474 (742)       
1 37829U 11055A   20024.38872110 -.00000016  00000-0  00000-0 0  9997
2 37829  64.5362 152.0226 0008250 240.9285  14.6885  2.13101809 64681
COSMOS 2476 (744)       
1 37867U 11064A   20024.45577926 -.00000015  00000-0  00000+0 0  9992
2 37867  64.5171 152.0670 0017973 234.6943 118.5615  2.13101847 64033
COSMOS 2477 (745)       
1 37868U 11064B   20024.31332784 -.00000016  00000-0  00000-0 0  9991
2 37868  64.5249 152.1257 0015643 235.0684 187.4864  2.13101699 63991
COSMOS 2475 (743)       
1 37869U 11064C   20024.29035237 -.00000016  00000-0  00000-0 0  9992
2 37869  64.5325 152.1273 0019118 260.3084 101.9084  2.13101871 64001
COSMOS 2485 (747)       
1 39155U 13019A   20024.39671565 -.00000015  00000-0  00000-0 0  9994
2 39155  64.6849 152.3061 0018576 229.6189 122.9692  2.13101798 52509
COSMOS 2492 (754)       
1 39620U 14012A   20024.39848014 -.00000045  00000-0  10000-3 0  9997
2 39620  65.7116  32.4789 0015340 317.0841  71.9492  2.13103281 45460
COSMOS 2500 (755)       
1 40001U 14032A   20024.21348447 -.00000045  00000-0  00000-0 0  9996
2 40001  65.6526  32.4112 0008037 223.9986 243.9857  2.13102567 43672
COSMOS 2501 (702K)      
1 40315U 14075A   20024.18982262  .00000033  00000-0  00000-0 0  9992
2 40315  63.9475 271.9171 0015355 208.8124  37.1607  2.13098510 40075
COSMOS 2514 (751)       
1 41330U 16008A   20024.41820473 -.00000046  00000-0  00000-0 0  9994
2 41330  65.4550  32.3130 0011812 226.3086 220.8782  2.13103010 30845
COSMOS 2516 (753)       
1 41554U 16032A   20024.23251782  .00000034  00000-0  00000-0 0  9996
2 41554  64.1716 271.9454 0011342 221.2164 334.1828  2.13101765 28440
COSMOS 2522 (752)       
1 42939U 17055A   20024.39583200  .00000033  00000-0  00000-0 0  9999
2 42939  64.4039 272.0769 0006668 256.5458 290.6958  2.13102116 18206
COSMOS 2527 (756)       
1 43508U 18053A   20024.07074328 -.00000017  00000-0  00000-0 0  9995
2 43508  64.8494 152.1351 0006330 218.3298 111.1052  2.13102564 12480
COSMOS 2529 (757)       
1 43687U 18086A   20024.48941872  .00000033  00000-0  00000-0 0  9998
2 43687  64.6167 272.1536 0009597 279.4987 295.1721  2.13102069  9518
COSMOS 2534 (758)       
1 44299U 19030A   20024.23218399  .00000035  00000-0  00000-0 0  9994
2 44299  64.6857 271.9649 0013306 296.1478 216.2918  2.13101929  5152
